COSMOS 2251 DEB         
1 34070U 93036KH  25325.62367660  .00015215  00000+0  22011-2 0  9999
2 34070  73.9999 157.7159 0019503 271.0281 155.6717 14.76027408882993
COSMOS 2251 DEB         
1 34114U 93036KK  25325.78032303  .00010393  00000+0  23331-2 0  9996
2 34114  74.0594  83.5261 0047813  86.3638  33.1743 14.55910082874966
COSMOS 2251 DEB         
1 34115U 93036KL  25325.99623815  .00008632  00000+0  11633-2 0  9999
2 34115  74.0068 282.8237 0028121 112.8302 247.5848 14.79016701891051
COSMOS 2251 DEB         
1 34116U 93036KM  25325.17389551  .00002950  00000+0  72366-3 0  9994
2 34116  74.0414 223.4460 0012484 299.3910 211.1642 14.52802545881730
COSMOS 2251 DEB         
1 34117U 93036KN  25325.60995666  .00001879  00000+0  59551-3 0  9993
2 34117  74.0412  22.8633 0054698 105.7584 254.9612 14.39897907878191
COSMOS 2251 DEB         
1 34118U 93036KP  25326.02966029  .00017702  00000+0  16535-2 0  9998
2 34118  73.9525 291.1725 0060096 126.6636 305.4094 14.92754864888670
COSMOS 2251 DEB         
1 34120U 93036KR  25325.90578896  .00000616  00000+0  38623-3 0  9997
2 34120  73.9918 252.3043 0181287  84.7554 341.4611 13.98647831856894
COSMOS 2251 DEB         
1 34121U 93036KS  25325.92294287  .00001624  00000+0  10255-2 0  9999
2 34121  73.9909 132.8390 0239147 342.8135 170.6450 13.91835864848357
COSMOS 2251 DEB         
1 34122U 93036KT  25326.02502912  .00005526  00000+0  99136-3 0  9990
2 34122  74.0342 158.4729 0083584  61.4315  96.7058 14.64695299883816
COSMOS 2251 DEB         
1 34127U 93036KY  25325.76129704  .00005727  00000+0  20267-2 0  9990
2 34127  74.1792  81.7664 0113576 286.7254 198.4668 14.31227937864715
COSMOS 2251 DEB         
1 34128U 93036KZ  25325.49176447  .00034482  00000+0  27679-2 0  9991
2 34128  74.0009 340.0305 0026356  97.2536  53.0217 14.99635172888480
COSMOS 2251 DEB         
1 34129U 93036LA  25325.59555110  .00007726  00000+0  11349-2 0  9999
2 34129  74.0362  20.8845 0032839 110.0272 250.4443 14.75269353609864
COSMOS 2251 DEB         
1 34136U 93036LH  25325.72503381  .00005764  00000+0  72104-3 0  9992
2 34136  74.0206  84.0675 0087590 212.2057 292.3930 14.79812666896995
COSMOS 2251 DEB         
1 34139U 93036LL  25326.00740058  .00008388  00000+0  17832-2 0  9992
2 34139  74.0303 293.5643 0042228   8.1217  55.8582 14.58623417878476
