[{
    "OBJECT_NAME": "COSMOS 2251 DEB",
    "OBJECT_ID": "1993-036KH",
    "EPOCH": "2025-11-21T14:58:05.658240",
    "MEAN_MOTION": 14.76027408,
    "ECCENTRICITY": 0.0019503,
    "INCLINATION": 73.9999,
    "RA_OF_ASC_NODE": 157.7159,
    "ARG_OF_PERICENTER": 271.0281,
    "MEAN_ANOMALY": 155.6717,
    "EPHEMERIS_TYPE": 0,
    "CLASSIFICATION_TYPE": "U",
    "NORAD_CAT_ID": 34070,
    "ELEMENT_SET_NO": 999,
    "REV_AT_EPOCH": 88299,
    "BSTAR": 0.0022011,
    "MEAN_MOTION_DOT": 0.00015215,
    "MEAN_MOTION_DDOT": 0
},{
    "OBJECT_NAME": "COSMOS 2251 DEB",
    "OBJECT_ID": "1993-036KK",
    "EPOCH": "2025-11-21T18:43:39.909792",
    "MEAN_MOTION": 14.55910082,
    "ECCENTRICITY": 0.0047813,
    "INCLINATION": 74.0594,
    "RA_OF_ASC_NODE": 83.5261,
    "ARG_OF_PERICENTER": 86.3638,
    "MEAN_ANOMALY": 33.1743,
    "EPHEMERIS_TYPE": 0,
    "CLASSIFICATION_TYPE": "U",
    "NORAD_CAT_ID": 34114,
    "ELEMENT_SET_NO": 999,
    "REV_AT_EPOCH": 87496,
    "BSTAR": 0.0023331,
    "MEAN_MOTION_DOT": 0.00010393,
    "MEAN_MOTION_DDOT": 0
},{
    "OBJECT_NAME": "COSMOS 2251 DEB",
    "OBJECT_ID": "1993-036KL",
    "EPOCH": "2025-11-21T23:54:34.976160",
    "MEAN_MOTION": 14.79016701,
    "ECCENTRICITY": 0.0028121,
    "INCLINATION": 74.0068,
    "RA_OF_ASC_NODE": 282.8237,
    "ARG_OF_PERICENTER": 112.8302,
    "MEAN_ANOMALY": 247.5848,
    "EPHEMERIS_TYPE": 0,
    "CLASSIFICATION_TYPE": "U",
    "NORAD_CAT_ID": 34115,
    "ELEMENT_SET_NO": 999,
    "REV_AT_EPOCH": 89105,
    "BSTAR": 0.0011633,
    "MEAN_MOTION_DOT": 8.632e-5,
    "MEAN_MOTION_DDOT": 0
},{
    "OBJECT_NAME": "COSMOS 2251 DEB",
    "OBJECT_ID": "1993-036KM",
    "EPOCH": "2025-11-21T04:10:24.572064",
    "MEAN_MOTION": 14.52802545,
    "ECCENTRICITY": 0.0012484,
    "INCLINATION": 74.0414,
    "RA_OF_ASC_NODE": 223.446,
    "ARG_OF_PERICENTER": 299.391,
    "MEAN_ANOMALY": 211.1642,
    "EPHEMERIS_TYPE": 0,
    "CLASSIFICATION_TYPE": "U",
    "NORAD_CAT_ID": 34116,
    "ELEMENT_SET_NO": 999,
    "REV_AT_EPOCH": 88173,
    "BSTAR": 0.00072366,
    "MEAN_MOTION_DOT": 2.95e-5,
    "MEAN_MOTION_DDOT": 0
},{
    "OBJECT_NAME": "COSMOS 2251 DEB",
    "OBJECT_ID": "1993-036KN",
    "EPOCH": "2025-11-21T14:38:20.255424",
    "MEAN_MOTION": 14.39897907,
    "ECCENTRICITY": 0.0054698,
    "INCLINATION": 74.0412,
    "RA_OF_ASC_NODE": 22.8633,
    "ARG_OF_PERICENTER": 105.7584,
    "MEAN_ANOMALY": 254.9612,
    "EPHEMERIS_TYPE": 0,
    "CLASSIFICATION_TYPE": "U",
    "NORAD_CAT_ID": 34117,
    "ELEMENT_SET_NO": 999,
    "REV_AT_EPOCH": 87819,
    "BSTAR": 0.00059551,
    "MEAN_MOTION_DOT": 1.879e-5,
    "MEAN_MOTION_DDOT": 0
},{
    "OBJECT_NAME": "COSMOS 2251 DEB",
    "OBJECT_ID": "1993-036KP",
    "EPOCH": "2025-11-22T00:42:42.649056",
    "MEAN_MOTION": 14.92754864,
    "ECCENTRICITY": 0.0060096,
    "INCLINATION": 73.9525,
    "RA_OF_ASC_NODE": 291.1725,
    "ARG_OF_PERICENTER": 126.6636,
    "MEAN_ANOMALY": 305.4094,
    "EPHEMERIS_TYPE": 0,
    "CLASSIFICATION_TYPE": "U",
    "NORAD_CAT_ID": 34118,
    "ELEMENT_SET_NO": 999,
    "REV_AT_EPOCH": 88867,
    "BSTAR": 0.0016535,
    "MEAN_MOTION_DOT": 0.00017702,
    "MEAN_MOTION_DDOT": 0
},{
    "OBJECT_NAME": "COSMOS 2251 DEB",
    "OBJECT_ID": "1993-036KR",
    "EPOCH": "2025-11-21T21:44:20.166144",
    "MEAN_MOTION": 13.98647831,
    "ECCENTRICITY": 0.0181287,
    "INCLINATION": 73.9918,
    "RA_OF_ASC_NODE": 252.3043,
    "ARG_OF_PERICENTER": 84.7554,
    "MEAN_ANOMALY": 341.4611,
    "EPHEMERIS_TYPE": 0,
    "CLASSIFICATION_TYPE": "U",
    "NORAD_CAT_ID": 34120,
    "ELEMENT_SET_NO": 999,
    "REV_AT_EPOCH": 85689,
    "BSTAR": 0.00038623,
    "MEAN_MOTION_DOT": 6.16e-6,
    "MEAN_MOTION_DDOT": 0
},{
    "OBJECT_NAME": "COSMOS 2251 DEB",
    "OBJECT_ID": "1993-036KS",
    "EPOCH": "2025-11-21T22:09:02.263968",
    "MEAN_MOTION": 13.91835864,
    "ECCENTRICITY": 0.0239147,
    "INCLINATION": 73.9909,
    "RA_OF_ASC_NODE": 132.839,
    "ARG_OF_PERICENTER": 342.8135,
    "MEAN_ANOMALY": 170.645,
    "EPHEMERIS_TYPE": 0,
    "CLASSIFICATION_TYPE": "U",
    "NORAD_CAT_ID": 34121,
    "ELEMENT_SET_NO": 999,
    "REV_AT_EPOCH": 84835,
    "BSTAR": 0.0010255,
    "MEAN_MOTION_DOT": 1.624e-5,
    "MEAN_MOTION_DDOT": 0
},{
    "OBJECT_NAME": "COSMOS 2251 DEB",
    "OBJECT_ID": "1993-036KT",
    "EPOCH": "2025-11-22T00:36:02.515968",
    "MEAN_MOTION": 14.64695299,
    "ECCENTRICITY": 0.0083584,
    "INCLINATION": 74.0342,
    "RA_OF_ASC_NODE": 158.4729,
    "ARG_OF_PERICENTER": 61.4315,
    "MEAN_ANOMALY": 96.7058,
    "EPHEMERIS_TYPE": 0,
    "CLASSIFICATION_TYPE": "U",
    "NORAD_CAT_ID": 34122,
    "ELEMENT_SET_NO": 999,
    "REV_AT_EPOCH": 88381,
    "BSTAR": 0.00099136,
    "MEAN_MOTION_DOT": 5.526e-5,
    "MEAN_MOTION_DDOT": 0
},{
    "OBJECT_NAME": "COSMOS 2251 DEB",
    "OBJECT_ID": "1993-036KY",
    "EPOCH": "2025-11-21T18:16:16.064256",
    "MEAN_MOTION": 14.31227937,
    "ECCENTRICITY": 0.0113576,
    "INCLINATION": 74.1792,
    "RA_OF_ASC_NODE": 81.7664,
    "ARG_OF_PERICENTER": 286.7254,
    "MEAN_ANOMALY": 198.4668,
    "EPHEMERIS_TYPE": 0,
    "CLASSIFICATION_TYPE": "U",
    "NORAD_CAT_ID": 34127,
    "ELEMENT_SET_NO": 999,
    "REV_AT_EPOCH": 86471,
    "BSTAR": 0.0020267,
    "MEAN_MOTION_DOT": 5.727e-5,
    "MEAN_MOTION_DDOT": 0
},{
    "OBJECT_NAME": "COSMOS 2251 DEB",
    "OBJECT_ID": "1993-036KZ",
    "EPOCH": "2025-11-21T11:48:08.450208",
    "MEAN_MOTION": 14.99635172,
    "ECCENTRICITY": 0.0026356,
    "INCLINATION": 74.0009,
    "RA_OF_ASC_NODE": 340.0305,
    "ARG_OF_PERICENTER": 97.2536,
    "MEAN_ANOMALY": 53.0217,
    "EPHEMERIS_TYPE": 0,
    "CLASSIFICATION_TYPE": "U",
    "NORAD_CAT_ID": 34128,
    "ELEMENT_SET_NO": 999,
    "REV_AT_EPOCH": 88848,
    "BSTAR": 0.0027679,
    "MEAN_MOTION_DOT": 0.00034482,
    "MEAN_MOTION_DDOT": 0
},{
    "OBJECT_NAME": "COSMOS 2251 DEB",
    "OBJECT_ID": "1993-036LA",
    "EPOCH": "2025-11-21T14:17:35.615040",
    "MEAN_MOTION": 14.75269353,
    "ECCENTRICITY": 0.0032839,
    "INCLINATION": 74.0362,
    "RA_OF_ASC_NODE": 20.8845,
    "ARG_OF_PERICENTER": 110.0272,
    "MEAN_ANOMALY": 250.4443,
    "EPHEMERIS_TYPE": 0,
    "CLASSIFICATION_TYPE": "U",
    "NORAD_CAT_ID": 34129,
    "ELEMENT_SET_NO": 999,
    "REV_AT_EPOCH": 60986,
    "BSTAR": 0.0011349,
    "MEAN_MOTION_DOT": 7.726e-5,
    "MEAN_MOTION_DDOT": 0
},{
    "OBJECT_NAME": "COSMOS 2251 DEB",
    "OBJECT_ID": "1993-036LH",
    "EPOCH": "2025-11-21T17:24:02.921184",
    "MEAN_MOTION": 14.79812666,
    "ECCENTRICITY": 0.008759,
    "INCLINATION": 74.0206,
    "RA_OF_ASC_NODE": 84.0675,
    "ARG_OF_PERICENTER": 212.2057,
    "MEAN_ANOMALY": 292.393,
    "EPHEMERIS_TYPE": 0,
    "CLASSIFICATION_TYPE": "U",
    "NORAD_CAT_ID": 34136,
    "ELEMENT_SET_NO": 999,
    "REV_AT_EPOCH": 89699,
    "BSTAR": 0.00072104,
    "MEAN_MOTION_DOT": 5.764e-5,
    "MEAN_MOTION_DDOT": 0
},{
    "OBJECT_NAME": "COSMOS 2251 DEB",
    "OBJECT_ID": "1993-036LL",
    "EPOCH": "2025-11-22T00:10:39.410112",
    "MEAN_MOTION": 14.58623417,
    "ECCENTRICITY": 0.0042228,
    "INCLINATION": 74.0303,
    "RA_OF_ASC_NODE": 293.5643,
    "ARG_OF_PERICENTER": 8.1217,
    "MEAN_ANOMALY": 55.8582,
    "EPHEMERIS_TYPE": 0,
    "CLASSIFICATION_TYPE": "U",
    "NORAD_CAT_ID": 34139,
    "ELEMENT_SET_NO": 999,
    "REV_AT_EPOCH": 87847,
    "BSTAR": 0.0017832,
    "MEAN_MOTION_DOT": 8.388e-5,
    "MEAN_MOTION_DDOT": 0
}]
